1 40041U 14033AH  20036.03749102  .00000383  00000-0  45821-4 0  9995
2 40041  97.9369 324.7550 0013371  10.4358 349.7134 14.89814313305793
1 40041U 14033AH  20036.23898169  .00000386  00000-0  46139-4 0  9991
2 40041  97.9369 324.9572 0013357   9.8074 350.3401 14.89814596305316
1 40041U 14033AH  20036.50763587  .00000381  00000-0  45622-4 0  9997
2 40041  97.9370 325.2268 0013336   8.9701 351.1752 14.89814866305350
1 40041U 14033AH  20037.11210759  .00000385  00000-0  46034-4 0  9995
2 40041  97.9370 325.8335 0013296   7.0847 353.0556 14.89815584305954
1 40041U 14033AH  20037.51508891  .00000362  00000-0  43674-4 0  9998
2 40041  97.9371 326.2379 0013259   5.7657 354.3710 14.89815790305507
1 40041U 14033AH  20037.78374270  .00000399  00000-0  47535-4 0  9999
2 40041  97.9371 326.5076 0013239   4.8550 355.2793 14.89816325305544
1 40041U 14033AH  20038.32105046  .00000453  00000-0  53138-4 0  9990
2 40041  97.9372 327.0468 0013197   3.1653 356.9646 14.89817149306131
1 40041U 14033AH  20038.58970435  .00000456  00000-0  53472-4 0  9994
2 40041  97.9371 327.3164 0013177   2.2784 357.8491 14.89817366305665
1 40041U 14033AH  20038.79119472  .00000461  00000-0  53976-4 0  9998
2 40041  97.9372 327.5187 0013165   1.6242 358.5015 14.89817579305691
1 40041U 14033AH  20039.32850216  .00000500  00000-0  58016-4 0  9990
2 40041  97.9372 328.0579 0013121 359.8899   0.2313 14.89818250306285
1 40041U 14033AH  20039.79864618  .00000493  00000-0  57268-4 0  9991
2 40041  97.9372 328.5297 0013087 358.3287   1.7884 14.89818542305847
1 40041U 14033AH  20040.06729972  .00000509  00000-0  58988-4 0  9994
2 40041  97.9373 328.7994 0013066 357.4559   2.6589 14.89818850305881
1 40041U 14033AH  20040.73893351  .00000526  00000-0  60706-4 0  9991
2 40041  97.9373 329.4734 0013009 355.1477   4.9612 14.89819457306496
1 40041U 14033AH  20041.34340355  .00000545  00000-0  62716-4 0  9994
2 40041  97.9373 330.0801 0012955 353.1162   6.9875 14.89820097306076
1 40041U 14033AH  20041.74638338  .00000547  00000-0  62861-4 0  9992
2 40041  97.9373 330.4846 0012923 351.7437   8.3565 14.89820508306645
1 40041U 14033AH  20042.55234270  .00000535  00000-0  61646-4 0  9996
2 40041  97.9373 331.2934 0012850 349.0633  11.0303 14.89821325306255
1 40041U 14033AH  20042.61950596  .00000531  00000-0  61270-4 0  9998
2 40041  97.9373 331.3608 0012845 348.8361  11.2569 14.89821388306269
1 40041U 14033AH  20043.35830157  .00000460  00000-0  53836-4 0  9990
2 40041  97.9373 332.1023 0012779 346.3559  13.7311 14.89821924306883
1 40041U 14033AH  20044.29858630  .00000390  00000-0  46543-4 0  9999
2 40041  97.9374 333.0460 0012696 343.1992  16.8802 14.89822760306511
1 40041U 14033AH  20044.76872845  .00000375  00000-0  44983-4 0  9994
2 40041  97.9373 333.5179 0012657 341.6339  18.4419 14.89823261307090
1 40041U 14033AH  20045.30603369  .00000354  00000-0  42854-4 0  9990
2 40041  97.9374 334.0571 0012604 339.8758  20.1961 14.89823795306665
1 40041U 14033AH  20045.77617575  .00000338  00000-0  41145-4 0  9999
2 40041  97.9374 334.5290 0012569 338.2975  21.7708 14.89824184307246
1 40041U 14033AH  20046.51497028  .00000330  00000-0  40304-4 0  9999
2 40041  97.9374 335.2705 0012503 335.8547  24.2083 14.89824815306841
1 40041U 14033AH  20046.78362277  .00000331  00000-0  40462-4 0  9991
2 40041  97.9374 335.5402 0012487 334.9394  25.1216 14.89825061307392
1 40041U 14033AH  20046.85078580  .00000343  00000-0  41678-4 0  9993
2 40041  97.9374 335.6076 0012482 334.7033  25.3571 14.89825205306893
1 40041U 14033AH  20047.52241689  .00000366  00000-0  44068-4 0  9991
2 40041  97.9374 336.2817 0012429 332.4333  27.6224 14.89825819306994
1 40041U 14033AH  20047.79106920  .00000378  00000-0  45317-4 0  9999
2 40041  97.9374 336.5513 0012414 331.4971  28.5566 14.89826104307540
1 40041U 14033AH  20048.39553688  .00000412  00000-0  48803-4 0  9995
2 40041  97.9374 337.1580 0012372 329.3910  30.6584 14.89826665307123
1 40041U 14033AH  20048.73135211  .00000429  00000-0  50584-4 0  9998
2 40041  97.9374 337.4951 0012355 328.2090  31.8380 14.89826989307177
1 40041U 14033AH  20049.33581946  .00000458  00000-0  53671-4 0  9997
2 40041  97.9375 338.1018 0012316 326.0929  33.9500 14.89827526307775
1 40041U 14033AH  20049.87312335  .00000515  00000-0  59518-4 0  9990
2 40041  97.9375 338.6410 0012280 324.1879  35.8514 14.89828249307341
1 40041U 14033AH  20050.34326416  .00000583  00000-0  66664-4 0  9994
2 40041  97.9375 339.1129 0012250 322.5206  37.5156 14.89828990307925
1 40041U 14033AH  20050.54475273  .00000639  00000-0  72460-4 0  9995
2 40041  97.9375 339.3151 0012237 321.8023  38.2326 14.89829537307448
1 40041U 14033AH  20050.88056736  .00000637  00000-0  72235-4 0  9999
2 40041  97.9375 339.6522 0012215 320.6067  39.4261 14.89829889307490
1 40041U 14033AH  20051.35070778  .00000602  00000-0  68617-4 0  9995
2 40041  97.9375 340.1240 0012182 318.9287  41.1012 14.89830191308078
1 40041U 14033AH  20051.75368492  .00000611  00000-0  69516-4 0  9991
2 40041  97.9375 340.5285 0012158 317.4866  42.5409 14.89830765307623
1 40041U 14033AH  20052.29098775  .00000557  00000-0  63897-4 0  9990
2 40041  97.9376 341.0678 0012122 315.5664  44.4580 14.89831187307701
1 40041U 14033AH  20052.76112738  .00000541  00000-0  62309-4 0  9998
2 40041  97.9377 341.5397 0012096 313.8822  46.1395 14.89831787308285
1 40041U 14033AH  20053.29842973  .00000520  00000-0  60137-4 0  9992
2 40041  97.9377 342.0790 0012043 312.0249  47.9942 14.89832474307857
1 40041U 14033AH  20053.76856914  .00000487  00000-0  56605-4 0  9991
2 40041  97.9378 342.5509 0012012 310.3768  49.6399 14.89832956308439
1 40041U 14033AH  20054.30587124  .00000455  00000-0  53308-4 0  9998
2 40041  97.9379 343.0902 0011970 308.4836  51.5307 14.89833526308007
1 40041U 14033AH  20054.77601038  .00000440  00000-0  51792-4 0  9999
2 40041  97.9379 343.5620 0011943 306.8447  53.1674 14.89834066308587
1 40041U 14033AH  20055.24614942  .00000441  00000-0  51889-4 0  9998
2 40041  97.9380 344.0340 0011902 305.2113  54.7990 14.89834687308141
1 40041U 14033AH  20055.78345094  .00000448  00000-0  52562-4 0  9992
2 40041  97.9380 344.5733 0011876 303.2885  56.7194 14.89835359308220
1 40041U 14033AH  20056.05210169  .00000448  00000-0  52635-4 0  9998
2 40041  97.9380 344.8430 0011854 302.3415  57.6654 14.89835654308771
1 40041U 14033AH  20056.25358980  .00000438  00000-0  51605-4 0  9999
2 40041  97.9381 345.0452 0011844 301.6243  58.3818 14.89835812308292
1 40041U 14033AH  20056.79089108  .00000455  00000-0  53361-4 0  9991
2 40041  97.9380 345.5845 0011821 299.6826  60.3214 14.89836425308373
1 40041U 14033AH  20057.73116808  .00000450  00000-0  52813-4 0  9990
2 40041  97.9380 346.5283 0011779 296.2686  63.7321 14.89837181308511
1 40041U 14033AH  20057.73116808  .00000450  00000-0  52813-4 0  9990
2 40041  97.9380 346.5283 0011779 296.2686  63.7321 14.89837181309028
1 40041U 14033AH  20059.20874477  .00000510  00000-0  59011-4 0  9991
2 40041  97.9344 348.0086 0012304 290.7207  69.2693 14.89837693309244
1 40041U 14033AH  20059.54455789  .00000523  00000-0  60400-4 0  9997
2 40041  97.9379 348.3485 0011735 289.5578  70.4372 14.89838990308789
1 40041U 14033AH  20059.61172043  .00000522  00000-0  60254-4 0  9990
2 40041  97.9379 348.4159 0011733 289.3034  70.6914 14.89839047308790
1 40041U 14033AH  20059.74604550  .00000521  00000-0  60237-4 0  9997
2 40041  97.9379 348.5507 0011730 288.8143  71.1801 14.89839188308810
1 40041U 14033AH  20060.28334574  .00000530  00000-0  61122-4 0  9998
2 40041  97.9379 349.0901 0011713 286.8149  73.1783 14.89839741309401
1 40041U 14033AH  20060.75348312  .00000531  00000-0  61234-4 0  9990
2 40041  97.9378 349.5619 0011706 285.0536  74.9386 14.89840274308965
1 40041U 14033AH  20061.35794522  .00000541  00000-0  62311-4 0  9993
2 40041  97.9378 350.1686 0011683 282.8028  77.1884 14.89841087309560
1 40041U 14033AH  20061.76091997  .00000496  00000-0  57562-4 0  9995
2 40041  97.9378 350.5731 0011674 281.3053  78.6852 14.89841313309111
1 40041U 14033AH  20062.36538181  .00000452  00000-0  52959-4 0  9990
2 40041  97.9378 351.1799 0011650 279.0586  80.9313 14.89841840309710
1 40041U 14033AH  20062.76835621  .00000437  00000-0  51410-4 0  9997
2 40041  97.9378 351.5844 0011640 277.5748  82.4147 14.89842270309267
1 40041U 14033AH  20063.30565545  .00000392  00000-0  46758-4 0  9992
2 40041  97.9379 352.1237 0011617 275.5794  84.4098 14.89842665309348
1 40041U 14033AH  20063.77579205  .00000390  00000-0  46565-4 0  9995
2 40041  97.9379 352.5956 0011608 273.8390  86.1500 14.89843196309924
1 40041U 14033AH  20064.51457817  .00000365  00000-0  43986-4 0  9998
2 40041  97.9380 353.3372 0011587 271.1028  88.8862 14.89843800309520
1 40041U 14033AH  20064.71606518  .00000370  00000-0  44521-4 0  9996
2 40041  97.9380 353.5394 0011592 270.3715  89.6174 14.89844040309551
1 40041U 14033AH  20064.78322744  .00000387  00000-0  46241-4 0  9998
2 40041  97.9380 353.6068 0011587 270.1274  89.8615 14.89844229310072
1 40041U 14033AH  20065.72350005  .00000419  00000-0  49577-4 0  9995
2 40041  97.9381 354.5506 0011573 266.6598  93.3295 14.89845251309702
1 40041U 14033AH  20066.05931165  .00000428  00000-0  50463-4 0  9990
2 40041  97.9381 354.8877 0011569 265.4421  94.5475 14.89845554310265
1 40041U 14033AH  20066.32796095  .00000421  00000-0  49755-4 0  9996
2 40041  97.9382 355.1574 0011573 264.4438  95.5459 14.89845700309798
1 40041U 14033AH  20066.79809686  .00000453  00000-0  53139-4 0  9994
2 40041  97.9382 355.6293 0011586 262.7281  97.2619 14.89846248309865
1 40041U 14033AH  20067.33539504  .00000473  00000-0  55167-4 0  9999
2 40041  97.9382 356.1686 0011599 260.7541  99.2364 14.89846718310456
1 40041U 14033AH  20067.80553037  .00000531  00000-0  61193-4 0  9999
2 40041  97.9372 356.6407 0012099 256.9521 103.0384 14.89846355310523
1 40041U 14033AH  20068.74580174  .00000503  00000-0  58293-4 0  9991
2 40041  97.9382 357.5844 0011634 255.5584 104.4343 14.89847977310157
